{"type": "FeatureCollection", "features": [ {"type": "Feature", "properties": {"norad_id": 30411, "name": "FENGYUN 1C DEB", "group": "fengyun-1c-debris", "lat": 58.43490948232551, "lon": -121.75459544437246, "alt_km": 819.2327614667583, "timestamp": "2025-12-07T14:37:05.480945+00:00", "meta": {"OBJECT_NAME": "FENGYUN 1C DEB", "OBJECT_ID": "1999-025AEA", "EPOCH": "2025-12-06T16:09:30.568608", "MEAN_MOTION": 14.07600641, "ECCENTRICITY": 0.0121986, "INCLINATION": 98.5823, "RA_OF_ASC_NODE": 251.5855, "ARG_OF_PERICENTER": 123.9756, "MEAN_ANOMALY": 237.3077, "EPHEMERIS_TYPE": 0, "CLASSIFICATION_TYPE": "U", "NORAD_CAT_ID": 30411, "ELEMENT_SET_NO": 999, "REV_AT_EPOCH": 95898, "BSTAR": 0.0025852851, "MEAN_MOTION_DOT": 4.633e-05, "MEAN_MOTION_DDOT": 0}, "tle": {"line1": "1 30411U 99025AEA 25340.67327047  .00004633  00000+0  25853-2 0  9994", "line2": "2 30411  98.5823 251.5855 0121986 123.9756 237.3077 14.07600641958984"}}, "geometry": {"type": "Point", "coordinates": [-121.75459544437246, 58.43490948232551]}}, {"type": "Feature", "properties": {"norad_id": 30413, "name": "FENGYUN 1C DEB", "group": "fengyun-1c-debris", "lat": -5.910426182219719, "lon": -146.2162308630398, "alt_km": 805.2075405654887, "timestamp": "2025-12-07T14:37:05.480955+00:00", "meta": {"OBJECT_NAME": "FENGYUN 1C DEB", "OBJECT_ID": "1999-025AEC", "EPOCH": "2025-12-06T21:57:14.306688", "MEAN_MOTION": 14.32435918, "ECCENTRICITY": 0.00458994, "INCLINATION": 102.0618, "RA_OF_ASC_NODE": 211.553, "ARG_OF_PERICENTER": 232.2266, "MEAN_ANOMALY": 142.631, "EPHEMERIS_TYPE": 0, "CLASSIFICATION_TYPE": "U", "NORAD_CAT_ID": 30413, "ELEMENT_SET_NO": 999, "REV_AT_EPOCH": 97056, "BSTAR": 0.0034814846, "MEAN_MOTION_DOT": 9.476e-05, "MEAN_MOTION_DDOT": 0}, "tle": {"line1": "1 30413U 99025AEC 25340.91474892  .00009476  00000+0  34815-2 0  9992", "line2": "2 30413 102.0618 211.5530 0045899 232.2266 142.6310 14.32435918970560"}}, "geometry": {"type": "Point", "coordinates": [-146.2162308630398, -5.910426182219719]}}, {"type": "Feature", "properties": {"norad_id": 30414, "name": "FENGYUN 1C DEB", "group": "fengyun-1c-debris", "lat": 52.15870118322346, "lon": 126.72174278349979, "alt_km": 809.7809297903896, "timestamp": "2025-12-07T14:37:05.480965+00:00", "meta": {"OBJECT_NAME": "FENGYUN 1C DEB", "OBJECT_ID": "1999-025AED", "EPOCH": "2025-12-06T21:37:22.912896", "MEAN_MOTION": 14.34024071, "ECCENTRICITY": 0.00586779, "INCLINATION": 99.0808, "RA_OF_ASC_NODE": 137.8595, "ARG_OF_PERICENTER": 205.5598, "MEAN_ANOMALY": 154.2682, "EPHEMERIS_TYPE": 0, "CLASSIFICATION_TYPE": "U", "NORAD_CAT_ID": 30414, "ELEMENT_SET_NO": 999, "REV_AT_EPOCH": 97003, "BSTAR": 0.004156514, "MEAN_MOTION_DOT": 0.00011808, "MEAN_MOTION_DDOT": 0}, "tle": {"line1": "1 30414U 99025AED 25340.90095964  .00011808  00000+0  41565-2 0  9993", "line2": "2 30414  99.0808 137.8595 0058677 205.5598 154.2682 14.34024071970036"}}, "geometry": {"type": "Point", "coordinates": [126.72174278349979, 52.15870118322346]}}, {"type": "Feature", "properties": {"norad_id": 30415, "name": "FENGYUN 1C DEB", "group": "fengyun-1c-debris", "lat": -74.59410035630229, "lon": -176.25851704384965, "alt_km": 850.2593798510279, "timestamp": "2025-12-07T14:37:05.480976+00:00", "meta": {"OBJECT_NAME": "FENGYUN 1C DEB", "OBJECT_ID": "1999-025AEE", "EPOCH": "2025-12-06T20:07:18.130656", "MEAN_MOTION": 13.68912732, "ECCENTRICITY": 0.02379223, "INCLINATION": 99.6457, "RA_OF_ASC_NODE": 41.0788, "ARG_OF_PERICENTER": 284.4456, "MEAN_ANOMALY": 138.5431, "EPHEMERIS_TYPE": 0, "CLASSIFICATION_TYPE": "U", "NORAD_CAT_ID": 30415, "ELEMENT_SET_NO": 999, "REV_AT_EPOCH": 93797, "BSTAR": 0.0018735761, "MEAN_MOTION_DOT": 1.923e-05, "MEAN_MOTION_DDOT": 0}, "tle": {"line1": "1 30415U 99025AEE 25340.83840429  .00001923  00000+0  18736-2 0  9991", "line2": "2 30415  99.6457  41.0788 0237922 284.4456 138.5431 13.68912732937973"}}, "geometry": {"type": "Point", "coordinates": [-176.25851704384965, -74.59410035630229]}}, {"type": "Feature", "properties": {"norad_id": 30416, "name": "FENGYUN 1C DEB", "group": "fengyun-1c-debris", "lat": 65.04236309091269, "lon": -154.3041156457172, "alt_km": 878.5829858205743, "timestamp": "2025-12-07T14:37:05.480986+00:00", "meta": {"OBJECT_NAME": "FENGYUN 1C DEB", "OBJECT_ID": "1999-025AEF", "EPOCH": "2025-12-06T12:23:40.956864", "MEAN_MOTION": 14.02620667, "ECCENTRICITY": 0.00551482, "INCLINATION": 98.835, "RA_OF_ASC_NODE": 5.1133, "ARG_OF_PERICENTER": 207.0932, "MEAN_ANOMALY": 152.7354, "EPHEMERIS_TYPE": 0, "CLASSIFICATION_TYPE": "U", "NORAD_CAT_ID": 30416, "ELEMENT_SET_NO": 999, "REV_AT_EPOCH": 96537, "BSTAR": 0.0004431436, "MEAN_MOTION_DOT": 6.5e-06, "MEAN_MOTION_DDOT": 0}, "tle": {"line1": "1 30416U 99025AEF 25340.51644626  .00000650  00000+0  44314-3 0  9996", "line2": "2 30416  98.8350   5.1133 0055148 207.0932 152.7354 14.02620667965379"}}, "geometry": {"type": "Point", "coordinates": [-154.3041156457172, 65.04236309091269]}}, {"type": "Feature", "properties": {"norad_id": 30417, "name": "FENGYUN 1C DEB", "group": "fengyun-1c-debris", "lat": 69.03044797419508, "lon": 175.25444835826102, "alt_km": 794.7628067315882, "timestamp": "2025-12-07T14:37:05.480996+00:00", "meta": {"OBJECT_NAME": "FENGYUN 1C DEB", "OBJECT_ID": "1999-025AEG", "EPOCH": "2025-12-06T23:05:41.536320", "MEAN_MOTION": 14.14653665, "ECCENTRICITY": 0.00642491, "INCLINATION": 98.6926, "RA_OF_ASC_NODE": 331.098, "ARG_OF_PERICENTER": 136.3209, "MEAN_ANOMALY": 280.9417, "EPHEMERIS_TYPE": 0, "CLASSIFICATION_TYPE": "U", "NORAD_CAT_ID": 30417, "ELEMENT_SET_NO": 999, "REV_AT_EPOCH": 97307, "BSTAR": 0.00043136395, "MEAN_MOTION_DOT": 8.04e-06, "MEAN_MOTION_DDOT": 0}, "tle": {"line1": "1 30417U 99025AEG 25340.96228630  .00000804  00000+0  43136-3 0  9991", "line2": "2 30417  98.6926 331.0980 0064249 136.3209 280.9417 14.14653665973078"}}, "geometry": {"type": "Point", "coordinates": [175.25444835826102, 69.03044797419508]}}, {"type": "Feature", "properties": {"norad_id": 30418, "name": "FENGYUN 1C DEB", "group": "fengyun-1c-debris", "lat": 44.81172612395193, "lon": 131.94550907305086, "alt_km": 606.7853565095575, "timestamp": "2025-12-07T14:37:05.481007+00:00", "meta": {"OBJECT_NAME": "FENGYUN 1C DEB", "OBJECT_ID": "1999-025AEH", "EPOCH": "2025-12-06T09:25:22.754208", "MEAN_MOTION": 14.84035411, "ECCENTRICITY": 0.01114606, "INCLINATION": 98.8405, "RA_OF_ASC_NODE": 139.4933, "ARG_OF_PERICENTER": 135.7663, "MEAN_ANOMALY": 255.86, "EPHEMERIS_TYPE": 0, "CLASSIFICATION_TYPE": "U", "NORAD_CAT_ID": 30418, "ELEMENT_SET_NO": 999, "REV_AT_EPOCH": 498, "BSTAR": 0.0018022914, "MEAN_MOTION_DOT": 0.00016734, "MEAN_MOTION_DDOT": 0}, "tle": {"line1": "1 30418U 99025AEH 25340.39262447  .00016734  00000+0  18023-2 0  9998", "line2": "2 30418  98.8405 139.4933 0111460 135.7663 255.8600 14.84035411  4986"}}, "geometry": {"type": "Point", "coordinates": [131.94550907305086, 44.81172612395193]}}, {"type": "Feature", "properties": {"norad_id": 30419, "name": "FENGYUN 1C DEB", "group": "fengyun-1c-debris", "lat": -68.83940385668801, "lon": -46.9409095882488, "alt_km": 852.1405231954768, "timestamp": "2025-12-07T14:37:05.481018+00:00", "meta": {"OBJECT_NAME": "FENGYUN 1C DEB", "OBJECT_ID": "1999-025AEJ", "EPOCH": "2025-12-06T18:45:52.385184", "MEAN_MOTION": 14.1800923, "ECCENTRICITY": 0.00530776, "INCLINATION": 99.2399, "RA_OF_ASC_NODE": 287.3302, "ARG_OF_PERICENTER": 41.3861, "MEAN_ANOMALY": 347.7798, "EPHEMERIS_TYPE": 0, "CLASSIFICATION_TYPE": "U", "NORAD_CAT_ID": 30419, "ELEMENT_SET_NO": 999, "REV_AT_EPOCH": 97264, "BSTAR": 0.0014692445, "MEAN_MOTION_DOT": 3.005e-05, "MEAN_MOTION_DDOT": 0}, "tle": {"line1": "1 30419U 99025AEJ 25340.78185631  .00003005  00000+0  14692-2 0  9996", "line2": "2 30419  99.2399 287.3302 0053077  41.3861 347.7798 14.18009230972641"}}, "geometry": {"type": "Point", "coordinates": [-46.9409095882488, -68.83940385668801]}}, {"type": "Feature", "properties": {"norad_id": 30432, "name": "FENGYUN 1C DEB", "group": "fengyun-1c-debris", "lat": -43.56821304881972, "lon": 51.80301177178044, "alt_km": 800.9665659189386, "timestamp": "2025-12-07T14:37:05.481028+00:00", "meta": {"OBJECT_NAME": "FENGYUN 1C DEB", "OBJECT_ID": "1999-025AET", "EPOCH": "2025-12-06T22:34:31.091232", "MEAN_MOTION": 14.40637027, "ECCENTRICITY": 0.00834141, "INCLINATION": 98.8352, "RA_OF_ASC_NODE": 239.6212, "ARG_OF_PERICENTER": 356.108, "MEAN_ANOMALY": 3.9449, "EPHEMERIS_TYPE": 0, "CLASSIFICATION_TYPE": "U", "NORAD_CAT_ID": 30432, "ELEMENT_SET_NO": 999, "REV_AT_EPOCH": 98651, "BSTAR": 0.0012197464, "MEAN_MOTION_DOT": 4.008e-05, "MEAN_MOTION_DDOT": 0}, "tle": {"line1": "1 30432U 99025AET 25340.94063763  .00004008  00000+0  12197-2 0  9992", "line2": "2 30432  98.8352 239.6212 0083414 356.1080   3.9449 14.40637027986519"}}, "geometry": {"type": "Point", "coordinates": [51.80301177178044, -43.56821304881972]}}, {"type": "Feature", "properties": {"norad_id": 30434, "name": "FENGYUN 1C DEB", "group": "fengyun-1c-debris", "lat": -37.47306696050765, "lon": 141.61053137306646, "alt_km": 854.1260644108625, "timestamp": "2025-12-07T14:37:05.481039+00:00", "meta": {"OBJECT_NAME": "FENGYUN 1C DEB", "OBJECT_ID": "1999-025AEV", "EPOCH": "2025-12-06T22:17:46.711104", "MEAN_MOTION": 13.90643022, "ECCENTRICITY": 0.01207307, "INCLINATION": 98.9987, "RA_OF_ASC_NODE": 327.929, "ARG_OF_PERICENTER": 247.1431, "MEAN_ANOMALY": 168.576, "EPHEMERIS_TYPE": 0, "CLASSIFICATION_TYPE": "U", "NORAD_CAT_ID": 30434, "ELEMENT_SET_NO": 999, "REV_AT_EPOCH": 95626, "BSTAR": 0.00052058516, "MEAN_MOTION_DOT": 6.45e-06, "MEAN_MOTION_DDOT": 0}, "tle": {"line1": "1 30434U 99025AEV 25340.92901286  .00000645  00000+0  52059-3 0  9998", "line2": "2 30434  98.9987 327.9290 0120730 247.1431 168.5760 13.90643022956264"}}, "geometry": {"type": "Point", "coordinates": [141.61053137306646, -37.47306696050765]}}]}